KMOR 311435Z AUTO 27007G14KT 10SM 23/17 A2995 RMK A01
KTYS 311353Z 28009KT 10SM 23/17 A2995 RMK AO2 SLP132 T02330167
KLSV 311355Z 29002KT 10SM 21/07 A2992 RMK AO2A SLP093 WND DATA ESTMD T02140071
KLAS 311356Z 01006KT 4SM 22/08 A2990 RMK AO2 SLP102 T02220078
KVGT 311353Z 22003KT 1SM 21/08 A2991 RMK AO2 SLP125 T02060083
PHNL 310153Z 07007KT 3SM 26/19 A3001 RMK AO2 SLP162 T02560189
KBNA POS 312353Z 00000KT 1/2SM 08/01 A2997 RMK AO2 SLP140 T02500144
